NORAD_CAT_ID,OBJECT_NAME,OBJECT_TYPE,EPOCH,MEAN_MOTION,ECCENTRICITY,INCLINATION,RA_OF_ASC_NODE,ARG_OF_PERICENTER,MEAN_ANOMALY,BSTAR,MEAN_MOTION_DOT,MEAN_MOTION_DDOT,TLE_LINE0,TLE_LINE1,TLE_LINE2,SEMIMAJOR_AXIS,PERIOD,APOGEE,PERIGEE,DECAYED
52352.0,STARLINK-3838,PAYLOAD,2023-11-18 13:48:18,15.08842065,0.000156,53.2182,19.519,99.4875,260.6294,3.642e-05,2.92e-06,0.0,0 STARLINK-3838,1 52352U 22045X   23322.57521309  .00000292  00000-0  36420-4 0  9996,2 52352  53.2182  19.5190 0001560  99.4875 260.6294 15.08842065 88654,6917.874,95.437,540.818,538.66,0.0
52352.0,STARLINK-3838,PAYLOAD,2023-11-19 10:28:19,15.0884065,0.0001448,53.2184,15.6533,93.4913,266.6245,2.6806e-05,1.39e-06,0.0,0 STARLINK-3838,1 52352U 22045X   23323.43633532  .00000139  00000-0  26806-4 0  9991,2 52352  53.2184  15.6533 0001448  93.4913 266.6245 15.08840650 88780,6917.878,95.438,540.745,538.742,0.0
52352.0,STARLINK-3838,PAYLOAD,2023-11-20 03:57:33,15.08838204,0.0001458,53.2187,12.385,91.6273,268.4886,4.0765e-05,3.61e-06,0.0,0 STARLINK-3838,1 52352U 22045X   23324.16497656  .00000361  00000-0  40765-4 0  9994,2 52352  53.2187  12.3850 0001458  91.6273 268.4886 15.08838204 88894,6917.886,95.438,540.76,538.742,0.0
52352.0,STARLINK-3838,PAYLOAD,2023-11-20 11:54:29,15.08846842,0.0001414,53.2186,10.8984,92.2484,267.867,9.2636e-05,1.187e-05,0.0,0 STARLINK-3838,1 52352U 22045X   23324.49616984  .00001187  00000-0  92636-4 0  9998,2 52352  53.2186  10.8984 0001414  92.2484 267.8670 15.08846842 88944,6917.859,95.437,540.703,538.746,0.0
52352.0,STARLINK-3838,PAYLOAD,2023-11-20 19:51:25,15.08841344,0.0001361,53.218,9.4114,89.8582,270.2567,-4.6563e-06,-3.62e-06,0.0,0 STARLINK-3838,1 52352U 22045X   23324.82737554 -.00000362  00000-0 -46563-5 0  9997,2 52352  53.2180   9.4114 0001361  89.8582 270.2567 15.08841344 88999,6917.876,95.437,540.683,538.8,0.0
52352.0,STARLINK-3838,PAYLOAD,2023-11-21 10:09:53,15.08839958,0.0001425,53.2186,6.7376,98.5041,261.6113,6.4451e-05,7.38e-06,0.0,0 STARLINK-3838,1 52352U 22045X   23325.42353586  .00000738  00000-0  64451-4 0  9993,2 52352  53.2186   6.7376 0001425  98.5041 261.6113 15.08839958 89083,6917.881,95.438,540.731,538.76,0.0
52352.0,STARLINK-3838,PAYLOAD,2023-11-21 13:20:39,15.08846077,0.0001432,53.2183,6.1406,92.1282,267.9874,9.5525e-05,1.233e-05,0.0,0 STARLINK-3838,1 52352U 22045X   23325.55601089  .00001233  00000-0  95525-4 0  9998,2 52352  53.2183   6.1406 0001432  92.1282 267.9874 15.08846077 89109,6917.862,95.437,540.717,538.736,0.0
52352.0,STARLINK-3838,PAYLOAD,2023-11-22 11:36:03,15.08851279,0.0001588,53.2185,1.9759,87.5825,272.5349,5.9769e-05,6.64e-06,0.0,0 STARLINK-3838,1 52352U 22045X   23326.48336876  .00000664  00000-0  59769-4 0  9997,2 52352  53.2185   1.9759 0001588  87.5825 272.5349 15.08851279 89242,6917.846,95.437,540.809,538.612,0.0
52352.0,STARLINK-3838,PAYLOAD,2023-11-23 01:54:32,15.08835254,0.0001635,53.2184,359.3033,95.7551,264.3628,2.0975e-05,4.6e-07,0.0,0 STARLINK-3838,1 52352U 22045X   23327.07954134  .00000046  00000-0  20975-4 0  9997,2 52352  53.2184 359.3033 0001635  95.7551 264.3628 15.08835254 89330,6917.895,95.438,540.891,538.629,0.0
52352.0,STARLINK-3838,PAYLOAD,2023-11-23 09:51:27,15.08841764,0.0001555,53.2177,357.8134,99.7905,260.3263,3.6935e-05,3e-06,0.0,0 STARLINK-3838,1 52352U 22045X   23327.41073708  .00000300  00000-0  36935-4 0  9990,2 52352  53.2177 357.8134 0001555  99.7905 260.3263 15.08841764 89384,6917.875,95.437,540.816,538.664,0.0
52352.0,STARLINK-3838,PAYLOAD,2023-11-24 01:45:20,15.08829519,0.0001749,53.2193,354.8406,100.606,259.5129,1.1933e-05,-9.8e-07,0.0,0 STARLINK-3838,1 52352U 22045X   23328.07315051 -.00000098  00000-0  11933-4 0  9999,2 52352  53.2193 354.8406 0001749 100.6060 259.5129 15.08829519 89486,6917.912,95.438,540.987,538.567,0.0
52352.0,STARLINK-3838,PAYLOAD,2023-11-24 09:42:15,15.08837856,0.0001591,53.2178,353.3529,100.3129,259.8043,-5.1547e-05,-1.108e-05,0.0,0 STARLINK-3838,1 52352U 22045X   23328.40434715 -.00001108  00000-0 -51547-4 0  9994,2 52352  53.2178 353.3529 0001591 100.3129 259.8043 15.08837856 89534,6917.887,95.438,540.853,538.651,0.0
52352.0,STARLINK-3838,PAYLOAD,2023-11-25 07:57:38,15.08852013,0.0001695,53.2178,349.1905,92.2832,267.8354,0.00019644,2.841e-05,0.0,0 STARLINK-3838,1 52352U 22045X   23329.33169697  .00002841  00000-0  19644-3 0  9995,2 52352  53.2178 349.1905 0001695  92.2832 267.8354 15.08852013 89671,6917.844,95.437,540.881,538.536,0.0
52352.0,STARLINK-3838,PAYLOAD,2023-11-26 01:26:54,15.08848232,0.0002242,53.2176,345.9265,53.0057,307.114,0.00023633,3.476e-05,0.0,0 STARLINK-3838,1 52352U 22045X   23330.06034741  .00003476  00000-0  23633-3 0  9996,2 52352  53.2176 345.9265 0002242  53.0057 307.1140 15.08848232 89786,6917.855,95.437,541.271,538.169,0.0
52352.0,STARLINK-3838,PAYLOAD,2023-11-26 07:48:26,15.08835707,0.0001769,53.2199,344.7322,98.9996,261.1197,0.00012356,1.679e-05,0.0,0 STARLINK-3838,1 52352U 22045X   23330.32530802  .00001679  00000-0  12356-3 0  9997,2 52352  53.2199 344.7322 0001769  98.9996 261.1197 15.08835707 89824,6917.894,95.438,540.982,538.535,0.0
52352.0,STARLINK-3838,PAYLOAD,2023-11-27 04:28:29,15.08822379,0.0001724,53.2192,340.8649,90.4742,269.6447,-0.00020555,-3.556e-05,0.0,0 STARLINK-3838,1 52352U 22045X   23331.18645157 -.00003556  00000-0 -20555-3 0  9990,2 52352  53.2192 340.8649 0001724  90.4742 269.6447 15.08822379 89959,6917.934,95.439,540.992,538.607,0.0
52352.0,STARLINK-3838,PAYLOAD,2023-11-27 07:39:15,15.08828244,0.0001875,53.2195,340.2703,87.8788,272.2419,-0.00014826,-2.646e-05,0.0,0 STARLINK-3838,1 52352U 22045X   23331.31892778 -.00002646  00000-0 -14826-3 0  9991,2 52352  53.2195 340.2703 0001875  87.8788 272.2419 15.08828244 89972,6917.916,95.438,541.078,538.484,0.0
52352.0,STARLINK-3838,PAYLOAD,2023-11-28 01:08:28,15.08842128,0.0001946,53.2191,336.9971,107.3102,252.8103,0.00012746,1.741e-05,0.0,0 STARLINK-3838,1 52352U 22045X   23332.04755354  .00001741  00000-0  12746-3 0  9992,2 52352  53.2191 336.9971 0001946 107.3102 252.8103 15.08842128 90089,6917.874,95.437,541.085,538.393,0.0
52352.0,STARLINK-3838,PAYLOAD,2023-11-28 05:54:37,15.08852129,0.0002144,53.2192,336.1052,109.8985,250.2238,0.00020661,3.003e-05,0.0,0 STARLINK-3838,1 52352U 22045X   23332.24626465  .00003003  00000-0  20661-3 0  9992,2 52352  53.2192 336.1052 0002144 109.8985 250.2238 15.08852129 90116,6917.843,95.437,541.192,538.225,0.0
52352.0,STARLINK-3838,PAYLOAD,2023-11-29 04:10:03,15.08821938,0.0002404,53.2189,331.9432,115.2623,244.8618,0.00017428,2.485e-05,0.0,0 STARLINK-3838,1 52352U 22045X   23333.17364662  .00002485  00000-0  17428-3 0  9993,2 52352  53.2189 331.9432 0002404 115.2623 244.8618 15.08821938 90256,6917.936,95.439,541.464,538.138,0.0
52352.0,STARLINK-3838,PAYLOAD,2023-11-29 05:45:25,15.08835604,0.0001968,53.2189,331.6436,100.385,259.7364,0.00029742,4.448e-05,0.0,0 STARLINK-3838,1 52352U 22045X   23333.23987627  .00004448  00000-0  29742-3 0  9995,2 52352  53.2189 331.6436 0001968 100.3850 259.7364 15.08835604 90267,6917.894,95.438,541.12,538.397,0.0
52352.0,STARLINK-3838,PAYLOAD,2023-11-30 04:00:50,15.0880635,0.0002227,53.2184,327.4825,101.174,258.9502,0.00050925,7.819e-05,0.0,0 STARLINK-3838,1 52352U 22045X   23334.16724816  .00007819  00000-0  50925-3 0  9999,2 52352  53.2184 327.4825 0002227 101.1740 258.9502 15.08806350 90400,6917.983,95.44,541.389,538.308,0.0
52352.0,STARLINK-3838,PAYLOAD,2023-11-30 08:46:58,15.08857968,0.0001992,53.2187,326.5873,89.3183,270.8038,3.0625e-05,1.99e-06,0.0,0 STARLINK-3838,1 52352U 22045X   23334.36594945  .00000199  00000-0  30625-4 0  9999,2 52352  53.2187 326.5873 0001992  89.3183 270.8038 15.08857968 90433,6917.825,95.436,541.068,538.312,0.0
52352.0,STARLINK-3838,PAYLOAD,2023-12-01 05:26:59,15.08839759,0.0002566,53.2198,322.7244,124.549,235.5744,9.4158e-06,-1.39e-06,0.0,0 STARLINK-3838,1 52352U 22045X   23335.22707713 -.00000139  00000-0  94158-5 0  9991,2 52352  53.2198 322.7244 0002566 124.5490 235.5744 15.08839759 90560,6917.881,95.438,541.521,537.971,0.0
52352.0,STARLINK-3838,PAYLOAD,2023-12-01 07:02:22,15.08838273,0.0002181,53.2195,322.4292,88.2876,271.8366,5.0445e-05,5.15e-06,0.0,0 STARLINK-3838,1 52352U 22045X   23335.29332086  .00000515  00000-0  50445-4 0  9992,2 52352  53.2195 322.4292 0002181  88.2876 271.8366 15.08838273 90578,6917.886,95.438,541.259,538.242,0.0
52352.0,STARLINK-3838,PAYLOAD,2023-12-01 22:56:13,15.08852825,0.0001931,53.2187,319.4546,96.5753,263.5459,4.255e-05,3.89e-06,0.0,0 STARLINK-3838,1 52352U 22045X   23335.95571167  .00000389  00000-0  42550-4 0  9997,2 52352  53.2187 319.4546 0001931  96.5753 263.5459 15.08852825 90676,6917.841,95.437,541.042,538.37,0.0
52352.0,STARLINK-3838,PAYLOAD,2023-12-02 05:17:44,15.08871296,0.0001957,53.2177,318.2653,81.0804,279.0409,0.00022345,3.273e-05,0.0,0 STARLINK-3838,1 52352U 22045X   23336.22065297  .00003273  00000-0  22345-3 0  9994,2 52352  53.2177 318.2653 0001957  81.0804 279.0409 15.08871296 90710,6917.785,95.436,541.004,538.296,0.0
52352.0,STARLINK-3838,PAYLOAD,2023-12-03 03:33:11,15.0882484,0.0002127,53.219,314.1009,110.5097,249.6124,-9.8516e-05,-1.855e-05,0.0,0 STARLINK-3838,1 52352U 22045X   23337.14805329 -.00001855  00000-0 -98516-4 0  9994,2 52352  53.2190 314.1009 0002127 110.5097 249.6124 15.08824840 90852,6917.927,95.439,541.263,538.32,0.0
52352.0,STARLINK-3838,PAYLOAD,2023-12-03 05:08:35,15.08814023,0.0001945,53.2188,313.8055,87.8086,272.3129,-0.0001818,-3.178e-05,0.0,0 STARLINK-3838,1 52352U 22045X   23337.21430460 -.00003178  00000-0 -18180-3 0  9990,2 52352  53.2188 313.8055 0001945  87.8086 272.3129 15.08814023 90868,6917.96,95.439,541.17,538.479,0.0
52352.0,STARLINK-3838,PAYLOAD,2023-12-03 13:05:30,15.08833953,0.0001916,53.2189,312.3169,83.272,276.849,-4.8475e-06,-3.65e-06,0.0,0 STARLINK-3838,1 52352U 22045X   23337.54549065 -.00000365  00000-0 -48475-5 0  9995,2 52352  53.2189 312.3169 0001916  83.2720 276.8490 15.08833953 90911,6917.899,95.438,541.089,538.438,0.0
